78P/Gehrels,e,6.2578,210.5215,192.6680,3.736233,0.1364750,0.46310710,220.4109,09/06.0/2023,2000,g  5.5,8.0
# From MPC 94675
79P/du Toit-Hartley,e,3.1487,280.5184,281.7877,2.944064,0.1951116,0.61921987,355.2473,09/06.0/2023,2000,g 16.0,4.0
# From MPEC 2023-R20
80P/Peters-Hartley,e,29.9229,259.7940,339.2511,4.022956,0.1221480,0.59842063,33.1216,09/06.0/2023,2000,g  9.0,8.0
# From MPEC 2023-R20
81P/Wild,e,3.2364,136.0961,41.6119,3.453675,0.1535613,0.53723171,40.6032,09/06.0/2023,2000,g  7.0,6.0
# From MPC133426
82P/Gehrels,e,1.1291,239.2451,226.3888,4.132850,0.1173085,0.12223144,223.0664,09/06.0/2023,2000,g 15.0,4.0
# From MPEC 2020-FB5
84P/Giclas,e,7.5504,108.1179,281.6743,3.549966,0.1473560,0.51611484,175.1100,09/06.0/2023,2000,g  9.5,8.0
# From MPEC 2022-YB4
86P/Wild,e,15.4839,72.2380,179.9234,3.611265,0.1436200,0.37230448,82.5013,09/06.0/2023,2000,g 11.0,6.0
# From MPEC 2020-SI8
87P/Bus,e,4.2256,181.9643,57.5846,4.237815,0.1129773,0.25785757,133.4828,09/06.0/2023,2000,g  7.2,10.0
# From MPEC 2023-J29
88P/Howell,e,4.3819,56.6659,235.9357,3.106665,0.1799958,0.56341308,193.5223,09/06.0/2023,2000,g 11.0,6.0
# From MPEC 2023-J29
89P/Russell,e,12.0722,41.3466,250.4007,3.752782,0.1355732,0.40796194,332.5332,09/06.0/2023,2000,g 11.5,6.0
# From MPEC 2022-K19
90P/Gehrels,e,9.6498,13.2031,29.0930,6.051351,0.0662103,0.51117281,150.0513,09/06.0/2023,2000,g  8.5,6.0
# From MPEC 2021-S45
91P/Russell,e,14.7349,244.9249,357.6175,3.896963,0.1281193,0.33642223,131.5457,09/06.0/2023,2000,g  7.5,6.0
# From MPEC 2014-J58
92P/Sanguin,e,19.5049,181.3615,163.8195,5.342725,0.0798105,0.66077765,247.6741,09/06.0/2023,2000,g 12.0,6.0
# From NK 2707
93P/Lovas,e,12.2038,339.6060,74.8957,4.378482,0.1075768,0.61387580,255.6724,09/06.0/2023,2000,g  9.0,4.0
# From MPEC 2023-O39
94P/Russell,e,6.1877,70.8530,92.4126,3.510222,0.1498657,0.36555601,16.1771,09/06.0/2023,2000,g  9.0,6.0
# From MPC 75717
95P/Chiron,e,6.9167,209.3083,339.3616,13.71302,0.0194091,0.37635900,196.8011,09/06.0/2023,2000,g  6.5,2.0
# From MPEC 2023-N01
96P/Machholz,e,57.5159,93.9529,14.7465,3.030645,0.1868106,0.96159389,40.7089,09/06.0/2023,2000,g 13.0,4.8
# From MPEC 2022-C56
97P/Metcalf-Brewington,e,17.9514,184.0782,230.0508,4.764311,0.0947772,0.46030803,53.7538,09/06.0/2023,2000,g  5.5,6.0
# From MPEC 2021-W31
98P/Takamizawa,e,10.5649,114.6590,157.7635,3.791634,0.1334948,0.56231990,130.1175,09/06.0/2023,2000,g  9.0,8.0
# From MPEC 2023-R20
99P/Kowal,e,4.3397,28.1001,174.7556,6.099137,0.0654337,0.22858031,33.5712,09/06.0/2023,2000,g  4.5,6.0
# From MPEC 2023-OA6
100P/Hartley,e,25.5668,37.6875,181.9628,3.430738,0.1551039,0.41183849,60.6631,09/06.0/2023,2000,g  9.0,8.0
# From MPEC 2022-K19
101P/Chernykh,e,5.0499,116.1830,277.8264,5.811219,0.0703563,0.59639417,93.6869,09/06.0/2023,2000,g 10.0,4.8
# From MPEC 2022-C56
102P/Shoemaker,e,25.8752,339.3719,20.6786,3.817464,0.1321422,0.45691793,126.3778,09/06.0/2023,2000,g  6.5,8.0
# From MPEC 2023-R20
103P/Hartley,e,13.6104,219.7502,181.3011,3.475608,0.1521100,0.69383973,354.4461,09/06.0/2023,2000,g  8.5,8.0
# From MPEC 2023-G31
104P/Kowal,e,5.7033,207.2093,227.2487,3.208524,0.1714929,0.66576989,103.2786,09/06.0/2023,2000,g 16.0,4.0
# From MPC109147
105P/Singer Brewster,e,9.1685,192.3945,46.3977,3.470390,0.1524533,0.40883729,283.0204,09/06.0/2023,2000,g 11.5,6.0
# From MPEC 2022-GA9
106P/Schuster,e,19.5402,48.8627,353.7458,3.766234,0.1348476,0.59398069,100.8689,09/06.0/2023,2000,g 14.0,4.8
# From MPEC 2015-M77
107P/Wilson-Harrington,e,2.7988,266.7618,95.4696,2.624799,0.2317715,0.63158679,87.4600,09/06.0/2023,2000,g  9.0,4.0
# From MPEC 2022-P82
108P/Ciffreo,e,11.4380,50.2707,354.5026,3.741688,0.1361767,0.55613045,98.8217,09/06.0/2023,2000,g  8.0,12.0
# From  105, 420
109P/Swift-Tuttle,e,113.5904,139.3441,153.1139,26.20619,0.0073468,0.96260456,82.4291,09/06.0/2023,2000,g  4.0,6.0
# From MPEC 2023-KD6
110P/Hartley,e,11.7055,287.5044,167.4752,3.603869,0.1440624,0.31884810,99.0433,09/06.0/2023,2000,g  1.0,12.0
# From MPC 75718
111P/Helin-Roman-Crockett,e,4.2258,89.7427,1.1692,4.151474,0.1165200,0.10700504,94.5008,09/06.0/2023,2000,g  5.0,8.0
# From MPEC 2021-S45
112P/Urata-Niijima,e,24.2139,31.8354,21.4815,3.524051,0.1489844,0.59073875,194.4037,09/06.0/2023,2000,g 14.0,6.0
# From MPEC 2023-HD1
113P/Spitaler,e,5.2886,306.6719,115.5787,3.693082,0.1388739,0.41993903,64.0760,09/06.0/2023,2000,g 14.9,4.0
# From MPEC 2023-A50
114P/Wiseman-Skiff,e,18.2954,271.0230,172.7509,3.542309,0.1478340,0.55570085,196.6396,09/06.0/2023,2000,g 11.5,6.0
# From MPEC 2023-J29
115P/Maury,e,11.6772,176.0091,120.9947,4.272212,0.1116156,0.51773938,126.5996,09/06.0/2023,2000,g 10.5,6.0
# From MPEC 2023-R20
116P/Wild,e,3.6033,20.9768,173.2363,3.488485,0.1512686,0.37031459,62.9668,09/06.0/2023,2000,g  2.5,10.0
# From MPEC 2023-R20
117P/Helin-Roman-Alu,e,8.7043,58.8232,223.1965,4.087596,0.1192620,0.25594821,50.5776,09/06.0/2023,2000,g  2.5,8.0
# From MPEC 2023-N01
118P/Shoemaker-Levy,e,10.0909,142.0948,314.8562,3.347483,0.1609261,0.45360948,45.9629,09/06.0/2023,2000,g 12.0,4.0
# From MPEC 2023-M14
119P/Parker-Hartley,e,7.3927,104.5669,322.1189,3.806040,0.1327376,0.38835321,51.7459,09/06.0/2023,2000,g 12.5,4.0
# From MPEC 2022-CN4
120P/Mueller,e,8.4882,358.6748,36.7158,3.966793,0.1247512,0.37485966,106.1981,09/06.0/2023,2000,g 12.0,4.0
# From MPEC 2023-D41
121P/Shoemaker-Holt,e,20.1642,94.1146,11.6760,4.584419,0.1004102,0.18631046,6.9429,09/06.0/2023,2000,g  6.5,8.0
# From MPC 75718
122P/de Vico,e,85.7949,79.7007,12.9896,17.62562,0.0133195,0.96239274,136.1225,09/06.0/2023,2000,g  7.5,5.2
# From MPEC 2021-F20
123P/West-Hartley,e,15.2882,45.8901,104.0639,3.881120,0.1289046,0.44420214,216.5225,09/06.0/2023,2000,g 12.2,4.0
# From MPEC 2022-YN2
124P/Mrkos,e,31.5055,0.1018,185.2273,3.370785,0.1592603,0.48755254,197.2899,09/06.0/2023,2000,g 13.5,2.8
# From MPEC 2022-YB4
125P/Spacewatch,e,9.9854,153.1526,87.1519,3.128793,0.1780897,0.51208841,327.3536,09/06.0/2023,2000,g 13.0,6.0
# From MPEC 2023-R20
126P/IRAS,e,45.8736,357.8703,356.5928,5.637325,0.0736367,0.69657368,4.6154,09/06.0/2023,2000,g  6.0,8.0
# From MPEC 2023-D41
127P/Holt-Olmstead,e,14.3012,13.6042,6.2779,3.452195,0.1536601,0.35941418,60.1727,09/06.0/2023,2000,g 11.0,6.0
# From MPC 89014
128P/Shoemaker-Holt,e,4.3705,214.3321,210.3114,4.486855,0.1037029,0.32219449,251.7071,09/06.0/2023,2000,g  8.5,4.0
# From MPEC 2023-M14
129P/Shoemaker-Levy,e,3.4425,184.8606,307.4537,4.290153,0.1109162,0.08527397,31.0419,09/06.0/2023,2000,g 11.0,4.0
# From MPEC 2023-M14
130P/McNaught-Hughes,e,6.0635,70.1787,246.1182,3.382236,0.1584522,0.46101001,324.8468,09/06.0/2023,2000,g 10.0,6.0
# From MPC102101
131P/Mueller,e,7.3622,214.1500,179.1073,3.677826,0.1397389,0.34487958,235.1920,09/06.0/2023,2000,g 11.0,4.0
# From MPEC 2022-TD3
132P/Helin-Roman-Alu,e,5.3824,173.9957,216.4235,3.889330,0.1284967,0.56470852,85.0333,09/06.0/2023,2000,g 11.0,6.0
# From MPC 94676
133P/Elst-Pizarro,e,1.3898,160.1024,131.9144,3.165129,0.1750318,0.15623047,316.7140,09/06.0/2023,2000,g 15.4,2.0
# From MPC 89012
134P/Kowal-Vavrova,e,4.3338,202.0457,18.7906,6.266003,0.0628374,0.58498399,214.0993,09/06.0/2023,2000,g 11.5,4.0
# From MPEC 2022-OB6
135P/Shoemaker-Levy,e,6.0635,213.0225,22.3665,3.800089,0.1330495,0.29447515,68.7327,09/06.0/2023,2000,g  7.0,8.0
# From MPEC 2020-W26
136P/Mueller,e,9.4254,137.4246,225.1754,4.187568,0.1150168,0.29336481,304.2393,09/06.0/2023,2000,g 11.0,4.0
# From MPEC 2023-J29
137P/Shoemaker-Levy,e,4.8595,232.9327,141.1942,4.521835,0.1025019,0.57378296,176.8929,09/06.0/2023,2000,g 11.0,4.0
# From MPEC 2016-U66
138P/Shoemaker-Levy,e,10.0921,309.2581,95.6366,3.619577,0.1431256,0.53155427,226.8835,09/06.0/2023,2000,g 15.0,6.0
# From MPEC 2020-HN5
139P/Vaisala-Oterma,e,2.3378,242.1393,165.8222,4.517239,0.1026584,0.24819678,214.7790,09/06.0/2023,2000,g  9.5,4.0
# From MPEC 2015-E14
140P/Bowell-Skiff,e,3.8277,343.2657,172.5420,6.407622,0.0607657,0.69545295,179.7970,09/06.0/2023,2000,g 11.5,6.0
# From MPEC 2021-AJ0
141P/Machholz,e,13.9605,241.7808,153.6210,3.057661,0.1843402,0.73611000,183.0882,09/06.0/2023,2000,g 14.7,4.0
# From MPEC 2022-SU8
141P-I/Machholz,e,13.9597,241.7864,153.5964,3.048238,0.1851956,0.73531274,184.0210,09/06.0/2023,2000,g 17.5,4.0
# From MPEC 2021-Y10
142P/Ge-Wang,e,12.2510,175.9359,174.0526,5.001474,0.0881164,0.49690071,74.5764,09/06.0/2023,2000,g  8.5,6.0
# From MPEC 2023-J29
143P/Kowal-Mrkos,e,4.7841,244.5542,320.5349,4.262357,0.1120029,0.41774468,218.3623,09/06.0/2023,2000,g 13.5,2.0
# From MPEC 2023-R20
144P/Kushida,e,3.9311,242.9225,216.3291,3.832692,0.1313555,0.63502730,341.3986,09/06.0/2023,2000,g  8.5,8.0
# From MPC108598
145P/Shoemaker-Levy,e,11.2801,26.7966,10.3013,4.134455,0.1172403,0.54256705,256.9834,09/06.0/2023,2000,g 13.5,4.0
# From MPC100284
146P/Shoemaker-LINEAR,e,23.1226,53.3766,317.0506,4.027714,0.1219316,0.64748970,319.2169,09/06.0/2023,2000,g 15.0,4.0
# From MPC 75720
147P/Kushida-Muramatsu,e,2.3110,91.6726,348.5259,4.015683,0.1224800,0.21340006,348.7358,09/06.0/2023,2000,g 14.0,4.0
# From MPEC 2023-HD1
148P/Anderson-LINEAR,e,3.6582,89.2013,8.0434,3.619346,0.1431393,0.55009022,64.3058,09/06.0/2023,2000,g 16.2,4.0
# From MPEC 2023-J29
149P/Mueller,e,34.2539,143.8869,30.4606,4.122933,0.1177320,0.32437428,218.7968,09/06.0/2023,2000,g  8.0,8.0
# From MPEC 2022-YN2
150P/LONEOS,e,18.5465,272.0595,246.0959,3.870168,0.1294522,0.54892365,335.6066,09/06.0/2023,2000,g 13.5,4.0
# From MPEC 2022-K19
151P/Helin,e,4.7264,143.1347,216.1521,5.763351,0.0712347,0.57361754,205.4013,09/06.0/2023,2000,g 10.0,6.0
# From MPEC 2023-R20
152P/Helin-Lawrence,e,9.8778,91.8274,164.2026,4.480613,0.1039197,0.30853348,62.2895,09/06.0/2023,2000,g 11.5,4.0
# From MPC 46101
153P/Ikeya-Zhang,e,28.2831,93.5968,34.5240,50.33526,0.0027599,0.98986825,0.0000,03/03.6491/2002,2000,g  9.0,4.0
# From MPEC 2022-K19
154P/Brewington,e,17.6332,343.0195,47.9469,4.796289,0.0938309,0.67618101,333.7797,09/06.0/2023,2000,g  2.5,12.0
# From MPEC 2022-YN2
